NORAD_CAT_ID,OBJECT_NAME,OBJECT_TYPE,EPOCH,MEAN_MOTION,ECCENTRICITY,INCLINATION,RA_OF_ASC_NODE,ARG_OF_PERICENTER,MEAN_ANOMALY,BSTAR,MEAN_MOTION_DOT,MEAN_MOTION_DDOT,TLE_LINE0,TLE_LINE1,TLE_LINE2,SEMIMAJOR_AXIS,PERIOD,APOGEE,PERIGEE,DECAYED
52137.0,STARLINK-3733,PAYLOAD,2023-03-09 21:50:04,15.08861089,0.000142,53.2146,308.2748,125.5722,234.5403,0.0014378,0.00022682,0.0,0 STARLINK-3733,1 52137U 22029BB  23068.90977809  .00022682  00000-0  14378-2 0  9996,2 52137  53.2146 308.2748 0001420 125.5722 234.5403 15.08861089 55517,6917.816,95.436,540.663,538.699,0.0
52137.0,STARLINK-3733,PAYLOAD,2023-03-10 08:57:47,15.08850062,0.0001347,53.2138,306.1929,68.4111,291.7024,0.0009709,0.00015202,0.0,0 STARLINK-3733,1 52137U 22029BB  23069.37346153  .00015202  00000-0  97090-3 0  9993,2 52137  53.2138 306.1929 0001347  68.4111 291.7024 15.08850062 55581,6917.85,95.437,540.646,538.783,0.0
52137.0,STARLINK-3733,PAYLOAD,2023-03-10 21:40:53,15.08815269,0.0001069,53.2132,303.813,67.5439,292.5667,0.0012239,0.00019231,0.0,0 STARLINK-3733,1 52137U 22029BB  23069.90339219  .00019231  00000-0  12239-2 0  9994,2 52137  53.2132 303.8130 0001069  67.5439 292.5667 15.08815269 55668,6917.956,95.439,540.561,539.081,0.0
52137.0,STARLINK-3733,PAYLOAD,2023-03-11 00:51:39,15.0882512,0.0001164,53.2138,303.2172,69.074,291.0377,0.0016273,0.00025695,0.0,0 STARLINK-3733,1 52137U 22029BB  23070.03587338  .00025695  00000-0  16273-2 0  9990,2 52137  53.2138 303.2172 0001164  69.0740 291.0377 15.08825120 55683,6917.926,95.438,540.596,538.986,0.0
52137.0,STARLINK-3733,PAYLOAD,2023-03-11 15:10:08,15.08826384,9.93e-05,53.2135,300.542,77.0566,283.0537,0.00090268,0.00014102,0.0,0 STARLINK-3733,1 52137U 22029BB  23070.63204406  .00014102  00000-0  90268-3 0  9996,2 52137  53.2135 300.5420 0000993  77.0566 283.0537 15.08826384 55772,6917.922,95.438,540.474,539.1,0.0
52137.0,STARLINK-3733,PAYLOAD,2023-03-12 00:42:27,15.08836758,0.0001166,53.2138,298.7581,70.0792,290.0325,0.0013226,0.00020822,0.0,0 STARLINK-3733,1 52137U 22029BB  23071.02948712  .00020822  00000-0  13226-2 0  9999,2 52137  53.2138 298.7581 0001166  70.0792 290.0325 15.08836758 55834,6917.89,95.438,540.562,538.949,0.0
52137.0,STARLINK-3733,PAYLOAD,2023-03-13 00:33:13,15.08883833,0.0001022,53.2148,294.2965,63.2298,296.8798,0.0013806,0.00021779,0.0,0 STARLINK-3733,1 52137U 22029BB  23072.02307108  .00021779  00000-0  13806-2 0  9994,2 52137  53.2148 294.2965 0001022  63.2298 296.8798 15.08883833 55988,6917.746,95.435,540.318,538.904,0.0
52137.0,STARLINK-3733,PAYLOAD,2023-03-14 05:10:09,15.08853477,8.15e-05,53.2156,288.9386,126.2546,233.8522,0.00076392,0.00011895,0.0,0 STARLINK-3733,1 52137U 22029BB  23073.21539087  .00011895  00000-0  76392-3 0  9997,2 52137  53.2156 288.9386 0000815 126.2546 233.8522 15.08853477 56167,6917.839,95.437,540.268,539.14,0.0
52137.0,STARLINK-3733,PAYLOAD,2023-03-14 14:42:28,15.08850405,0.0001143,53.2148,287.1578,64.3399,295.7711,0.00059858,9.254e-05,0.0,0 STARLINK-3733,1 52137U 22029BB  23073.61283324  .00009254  00000-0  59858-3 0  9995,2 52137  53.2148 287.1578 0001143  64.3399 295.7711 15.08850405 56227,6917.849,95.437,540.504,538.923,0.0
52137.0,STARLINK-3733,PAYLOAD,2023-03-14 21:04:00,15.08863042,0.000138,53.2133,285.9693,63.2525,296.8608,0.00079961,0.00012469,0.0,0 STARLINK-3733,1 52137U 22029BB  23073.87778872  .00012469  00000-0  79961-3 0  9999,2 52137  53.2133 285.9693 0001380  63.2525 296.8608 15.08863042 56269,6917.81,95.436,540.63,538.72,0.0
52137.0,STARLINK-3733,PAYLOAD,2023-03-15 00:14:47,15.08866463,0.0001349,53.2135,285.3743,61.3828,298.73,0.00080668,0.00012583,0.0,0 STARLINK-3733,1 52137U 22029BB  23074.01026634  .00012583  00000-0  80668-3 0  9991,2 52137  53.2135 285.3743 0001349  61.3828 298.7300 15.08866463 56283,6917.8,95.436,540.598,538.731,0.0
52137.0,STARLINK-3733,PAYLOAD,2023-03-16 00:05:34,15.08850431,0.0002242,53.2153,280.9129,72.8884,287.2354,0.00043687,6.673e-05,0.0,0 STARLINK-3733,1 52137U 22029BB  23075.00386761  .00006673  00000-0  43687-3 0  9994,2 52137  53.2153 280.9129 0002242  72.8884 287.2354 15.08850431 56431,6917.849,95.437,541.264,538.163,0.0
52137.0,STARLINK-3733,PAYLOAD,2023-03-16 20:45:35,15.0882455,0.0001103,53.2118,277.0474,75.9982,284.1133,0.00018857,2.713e-05,0.0,0 STARLINK-3733,1 52137U 22029BB  23075.86499562  .00002713  00000-0  18857-3 0  9994,2 52137  53.2118 277.0474 0001103  75.9982 284.1133 15.08824550 56568,6917.928,95.439,540.556,539.03,0.0
52137.0,STARLINK-3733,PAYLOAD,2023-03-17 06:17:54,15.08829505,0.0001002,53.2125,275.2633,89.6744,270.4362,0.00043572,6.651e-05,0.0,0 STARLINK-3733,1 52137U 22029BB  23076.26243856  .00006651  00000-0  43572-3 0  9999,2 52137  53.2125 275.2633 0001002  89.6744 270.4362 15.08829505 56623,6917.912,95.438,540.471,539.084,0.0
52137.0,STARLINK-3733,PAYLOAD,2023-03-17 22:11:45,15.08849057,8.36e-05,53.2137,272.2883,88.2382,271.8706,0.00062982,9.752e-05,0.0,0 STARLINK-3733,1 52137U 22029BB  23076.92483501  .00009752  00000-0  62982-3 0  9996,2 52137  53.2137 272.2883 0000836  88.2382 271.8706 15.08849057 56729,6917.853,95.437,540.296,539.139,0.0
52137.0,STARLINK-3733,PAYLOAD,2023-03-18 20:27:09,15.08850564,0.0001184,53.2141,268.1258,84.7,275.4127,0.00032082,4.823e-05,0.0,0 STARLINK-3733,1 52137U 22029BB  23077.85219334  .00004823  00000-0  32082-3 0  9992,2 52137  53.2141 268.1258 0001184  84.7000 275.4127 15.08850564 56866,6917.848,95.437,540.532,538.894,0.0
52137.0,STARLINK-3733,PAYLOAD,2023-03-18 22:02:32,15.08852869,0.0001204,53.214,267.8282,84.7584,275.3545,0.00035897,5.432e-05,0.0,0 STARLINK-3733,1 52137U 22029BB  23077.91843236  .00005432  00000-0  35897-3 0  9997,2 52137  53.2140 267.8282 0001204  84.7584 275.3545 15.08852869 56872,6917.841,95.437,540.539,538.873,0.0
52137.0,STARLINK-3733,PAYLOAD,2023-03-19 12:21:00,15.0884452,0.0001144,53.2122,265.1513,97.2504,262.8618,0.00010042,1.311e-05,0.0,0 STARLINK-3733,1 52137U 22029BB  23078.51459270  .00001311  00000-0  10042-3 0  9992,2 52137  53.2122 265.1513 0001144  97.2504 262.8618 15.08844520 56961,6917.867,95.437,540.523,538.94,0.0
52137.0,STARLINK-3733,PAYLOAD,2023-03-19 18:42:33,15.08845506,0.000121,53.2125,263.9626,89.9826,270.1305,9.6657e-05,1.251e-05,0.0,0 STARLINK-3733,1 52137U 22029BB  23078.77955223  .00001251  00000-0  96657-4 0  9999,2 52137  53.2125 263.9626 0001210  89.9826 270.1305 15.08845506 57000,6917.864,95.437,540.566,538.891,0.0
52137.0,STARLINK-3733,PAYLOAD,2023-03-20 12:11:47,15.0884295,0.0001193,53.2129,260.6912,89.0746,271.0382,8.9329e-05,1.134e-05,0.0,0 STARLINK-3733,1 52137U 22029BB  23079.50819286  .00001134  00000-0  89329-4 0  9997,2 52137  53.2129 260.6912 0001193  89.0746 271.0382 15.08842950 57115,6917.871,95.437,540.562,538.911,0.0
52137.0,STARLINK-3733,PAYLOAD,2023-03-20 18:33:20,15.08845636,0.0001088,53.2131,259.502,78.8507,281.2607,0.000117,1.575e-05,0.0,0 STARLINK-3733,1 52137U 22029BB  23079.77315164  .00001575  00000-0  11700-3 0  9998,2 52137  53.2131 259.5020 0001088  78.8507 281.2607 15.08845636 57150,6917.863,95.437,540.481,538.975,0.0
52137.0,STARLINK-3733,PAYLOAD,2023-03-21 12:02:34,15.08839915,0.0001202,53.2125,256.2305,82.1104,278.0025,7.2922e-05,8.73e-06,0.0,0 STARLINK-3733,1 52137U 22029BB  23080.50179348  .00000873  00000-0  72922-4 0  9997,2 52137  53.2125 256.2305 0001202  82.1104 278.0025 15.08839915 57265,6917.881,95.438,540.577,538.914,0.0
52137.0,STARLINK-3733,PAYLOAD,2023-03-22 18:14:54,15.08843546,0.0001082,53.2164,250.5833,86.7726,273.339,7.8595e-05,9.63e-06,0.0,0 STARLINK-3733,1 52137U 22029BB  23081.76035128  .00000963  00000-0  78595-4 0  9995,2 52137  53.2164 250.5833 0001082  86.7726 273.3390 15.08843546 57456,6917.87,95.437,540.483,538.986,0.0
52137.0,STARLINK-3733,PAYLOAD,2023-03-23 03:47:13,15.08843178,0.0001031,53.2146,248.7971,81.5619,278.549,4.6162e-05,4.47e-06,0.0,0 STARLINK-3733,1 52137U 22029BB  23082.15779185  .00000447  00000-0  46162-4 0  9999,2 52137  53.2146 248.7971 0001031  81.5619 278.5490 15.08843178 57512,6917.871,95.437,540.449,539.022,0.0
52137.0,STARLINK-3733,PAYLOAD,2023-03-23 16:30:19,15.08832491,0.0001724,53.2169,246.4228,105.8562,254.262,7.6522e-05,9.3e-06,0.0,0 STARLINK-3733,1 52137U 22029BB  23082.68772127  .00000930  00000-0  76522-4 0  9996,2 52137  53.2169 246.4228 0001724 105.8562 254.2620 15.08832491 57593,6917.903,95.438,540.961,538.576,0.0
52137.0,STARLINK-3733,PAYLOAD,2023-03-24 03:37:59,15.08853438,0.0001096,53.216,244.3383,95.4649,264.6468,0.00024542,3.622e-05,0.0,0 STARLINK-3733,1 52137U 22029BB  23083.15138568  .00003622  00000-0  24542-3 0  9999,2 52137  53.2160 244.3383 0001096  95.4649 264.6468 15.08853438 57662,6917.839,95.437,540.463,538.946,0.0
52137.0,STARLINK-3733,PAYLOAD,2023-03-24 11:34:55,15.08858095,6.97e-05,53.2127,242.8481,62.9961,297.1103,0.00040035,6.093e-05,0.0,0 STARLINK-3733,1 52137U 22029BB  23083.48258172  .00006093  00000-0  40035-3 0  9999,2 52137  53.2127 242.8481 0000697  62.9961 297.1103 15.08858095 57716,6917.825,95.436,540.172,539.208,0.0
52137.0,STARLINK-3733,PAYLOAD,2023-03-24 14:45:40,15.08868952,6.5e-05,53.2143,242.255,69.5427,290.5635,0.00052604,8.101e-05,0.0,0 STARLINK-3733,1 52137U 22029BB  23083.61505491  .00008101  00000-0  52604-3 0  9990,2 52137  53.2143 242.2550 0000650  69.5427 290.5635 15.08868952 57736,6917.792,95.436,540.107,539.207,0.0
52137.0,STARLINK-3733,PAYLOAD,2023-03-24 16:21:03,15.08875141,0.0001215,53.2159,241.9579,91.1286,268.9845,0.00065827,0.00010214,0.0,0 STARLINK-3733,1 52137U 22029BB  23083.68129444  .00010214  00000-0  65827-3 0  9996,2 52137  53.2159 241.9579 0001215  91.1286 268.9845 15.08875141 57743,6917.773,95.435,540.478,538.797,0.0
52137.0,STARLINK-3733,PAYLOAD,2023-03-25 03:28:46,15.08854828,0.0001427,53.2157,239.8796,94.7508,265.3647,0.00016119,2.279e-05,0.0,0 STARLINK-3733,1 52137U 22029BB  23084.14497770  .00002279  00000-0  16119-3 0  9990,2 52137  53.2157 239.8796 0001427  94.7508 265.3647 15.08854828 57817,6917.835,95.437,540.687,538.713,0.0
